{
    "links": {
        "self": "http://www.neowsapp.com/rest/v1/neo/3662875?api_key=iIulBulltgU6a56xZRHN4H3l9WmuAYTsLGpBGhQ2"
    },
    "id": "3662875",
    "neo_reference_id": "3662875",
    "name": "(2014 DW110)",
    "designation": "2014 DW110",
    "nasa_jpl_url": "http://ssd.jpl.nasa.gov/sbdb.cgi?sstr=3662875",
    "absolute_magnitude_h": 25.1,
    "estimated_diameter": {
        "kilometers": {
            "estimated_diameter_min": 0.0253837029,
            "estimated_diameter_max": 0.0567596853
        },
        "meters": {
            "estimated_diameter_min": 25.3837029364,
            "estimated_diameter_max": 56.7596852866
        },
        "miles": {
            "estimated_diameter_min": 0.0157726969,
            "estimated_diameter_max": 0.0352688224
        },
        "feet": {
            "estimated_diameter_min": 83.279867942,
            "estimated_diameter_max": 186.2194458756
        }
    },
    "is_potentially_hazardous_asteroid": false,
    "close_approach_data": [
        {
            "close_approach_date": "1995-05-11",
            "close_approach_date_full": "1995-May-11 02:18",
            "epoch_date_close_approach": 800158680000,
            "relative_velocity": {
                "kilometers_per_second": "17.6556438455",
                "kilometers_per_hour": "63560.3178438187",
                "miles_per_hour": "39493.9097180106"
            },
            "miss_distance": {
                "astronomical": "0.4207834057",
                "lunar": "163.6847448173",
                "kilometers": "62948301.224065859",
                "miles": "39114260.6282684942"
            },
            "orbiting_body": "Earth"
        },
        {
            "close_approach_date": "2014-03-21",
            "close_approach_date_full": "2014-Mar-21 00:54",
            "epoch_date_close_approach": 1395363240000,
            "relative_velocity": {
                "kilometers_per_second": "6.378326174",
                "kilometers_per_hour": "22961.974226256",
                "miles_per_hour": "14267.6778185311"
            },
            "miss_distance": {
                "astronomical": "0.0646548666",
                "lunar": "25.1507431074",
                "kilometers": "9672230.328494142",
                "miles": "6010045.2366254796"
            },
            "orbiting_body": "Earth"
        },
        {
            "close_approach_date": "2036-05-11",
            "close_approach_date_full": "2036-May-11 18:42",
            "epoch_date_close_approach": 2094144120000,
            "relative_velocity": {
                "kilometers_per_second": "17.9142403458",
                "kilometers_per_hour": "64491.2652447166",
                "miles_per_hour": "40072.3642294185"
            },
            "miss_distance": {
                "astronomical": "0.4291265372",
                "lunar": "166.9302229708",
                "kilometers": "64196415.925595764",
                "miles": "39889803.1414149832"
            },
            "orbiting_body": "Earth"
        }
    ],
    "orbital_data": {
        "orbit_id": "18",
        "orbit_determination_date": "2017-04-06 08:42:14",
        "first_observation_date": "2014-02-28",
        "last_observation_date": "2014-04-01",
        "data_arc_in_days": 32,
        "observations_used": 61,
        "orbit_uncertainty": "7",
        "minimum_orbit_intersection": ".0650916",
        "jupiter_tisserand_invariant": "3.522",
        "epoch_osculation": "2459000.5",
        "eccentricity": ".5082077268214061",
        "semi_major_axis": "2.151418592250844",
        "inclination": "5.031046045056393",
        "ascending_node_longitude": "167.234027511281",
        "orbital_period": "1152.61907615183",
        "perihelion_distance": "1.058051040041733",
        "perihelion_argument": "14.37875509700325",
        "aphelion_distance": "3.244786144459956",
        "perihelion_time": "2459043.975107854558",
        "mean_anomaly": "346.4213258729902",
        "mean_motion": ".3123321550445853",
        "equinox": "J2000",
        "orbit_class": {
            "orbit_class_type": "AMO",
            "orbit_class_description": "Near-Earth asteroid orbits similar to that of 1221 Amor",
            "orbit_class_range": "1.017 AU < q (perihelion) < 1.3 AU"
        }
    },
    "is_sentry_object": false
}